{
  "norad_id": 58076,
  "name": "STARLINK-30500",
  "history": [
    {
      "epoch": "2026-03-28T16:52:14.618208Z",
      "apogee_km": 484.03429941268405,
      "perigee_km": 482.0376980700503,
      "latitude_deg": -2.060244662543279e-05,
      "longitude_deg": -108.68272317094606,
      "height_km": 482.73888336810387,
      "semi_major_axis_km": 6861.172998741367,
      "eccentricity": 0.0001455,
      "inclination_deg": 42.9995,
      "raan_deg": 330.4978,
      "arg_perigee_deg": 274.2404,
      "mean_anomaly_deg": 85.8281,
      "mean_motion_rev_day": 15.27584374
    },
    {
      "epoch": "2026-03-29T00:43:01.063488Z",
      "apogee_km": 483.90803059545215,
      "perigee_km": 482.11041028569616,
      "latitude_deg": 5.731379274759727e-07,
      "longitude_deg": 131.45804389822752,
      "height_km": 482.8589685327922,
      "semi_major_axis_km": 6861.146220440573,
      "eccentricity": 0.000131,
      "inclination_deg": 42.9996,
      "raan_deg": 328.6543,
      "arg_perigee_deg": 265.3298,
      "mean_anomaly_deg": 94.7404,
      "mean_motion_rev_day": 15.27593317
    },
    {
      "epoch": "2026-03-30T00:15:22.601664Z",
      "apogee_km": 483.83502269427936,
      "perigee_km": 482.32418279835474,
      "latitude_deg": -5.002926384409708e-05,
      "longitude_deg": 131.86302268894406,
      "height_km": 482.81491862140393,
      "semi_major_axis_km": 6861.216602746317,
      "eccentricity": 0.0001101,
      "inclination_deg": 43.0073,
      "raan_deg": 323.1158,
      "arg_perigee_deg": 273.1839,
      "mean_anomaly_deg": 86.8886,
      "mean_motion_rev_day": 15.27569812
    },
    {
      "epoch": "2026-03-30T00:15:22.602528Z",
      "apogee_km": 483.8353657551106,
      "perigee_km": 482.3238397375244,
      "latitude_deg": -4.6103519857504214e-05,
      "longitude_deg": 131.8630232646001,
      "height_km": 482.8148995699842,
      "semi_major_axis_km": 6861.216602746317,
      "eccentricity": 0.00011015,
      "inclination_deg": 43.0073,
      "raan_deg": 323.1158,
      "arg_perigee_deg": 273.1839,
      "mean_anomaly_deg": 86.8886,
      "mean_motion_rev_day": 15.27569812
    },
    {
      "epoch": "2026-03-30T08:06:09.687168Z",
      "apogee_km": 483.77564644521226,
      "perigee_km": 482.3728031981864,
      "latitude_deg": -3.2262709727076985e-05,
      "longitude_deg": 11.994911682294163,
      "height_km": 482.86788147368804,
      "semi_major_axis_km": 6861.211224821699,
      "eccentricity": 0.00010223,
      "inclination_deg": 42.9991,
      "raan_deg": 321.2661,
      "arg_perigee_deg": 268.5805,
      "mean_anomaly_deg": 91.4929,
      "mean_motion_rev_day": 15.27571608
    },
    {
      "epoch": "2026-03-30T22:13:33.553920Z",
      "apogee_km": 483.9075202004442,
      "perigee_km": 482.1569614803366,
      "latitude_deg": 2.180771265518666e-05,
      "longitude_deg": 156.24230205783292,
      "height_km": 482.8626408049361,
      "semi_major_axis_km": 6861.16924084039,
      "eccentricity": 0.00012757,
      "inclination_deg": 42.9988,
      "raan_deg": 317.9429,
      "arg_perigee_deg": 266.4663,
      "mean_anomaly_deg": 93.6043,
      "mean_motion_rev_day": 15.27585629
    },
    {
      "epoch": "2026-03-31T21:45:55.182816Z",
      "apogee_km": 484.02508980287075,
      "perigee_km": 482.09709313916755,
      "latitude_deg": 2.036156956353449e-05,
      "longitude_deg": 156.64555507509746,
      "height_km": 482.7996173459998,
      "semi_major_axis_km": 6861.198091471018,
      "eccentricity": 0.0001405,
      "inclination_deg": 42.9995,
      "raan_deg": 312.403,
      "arg_perigee_deg": 272.2667,
      "mean_anomaly_deg": 87.8024,
      "mean_motion_rev_day": 15.27575994
    },
    {
      "epoch": "2026-04-01T21:18:17.235072Z",
      "apogee_km": 483.6626296602899,
      "perigee_km": 482.54287533268234,
      "latitude_deg": 4.0390558547551e-05,
      "longitude_deg": 157.0487620333774,
      "height_km": 482.9264257207935,
      "semi_major_axis_km": 6861.239752496486,
      "eccentricity": 8.16e-05,
      "inclination_deg": 42.9988,
      "raan_deg": 306.8648,
      "arg_perigee_deg": 265.1204,
      "mean_anomaly_deg": 94.9555,
      "mean_motion_rev_day": 15.27562081
    },
    {
      "epoch": "2026-04-02T20:50:35.739744Z",
      "apogee_km": 483.8477122608201,
      "perigee_km": 482.01169081148873,
      "latitude_deg": -2.579057616015926e-05,
      "longitude_deg": 157.4656986397379,
      "height_km": 482.7384143715214,
      "semi_major_axis_km": 6861.066701536154,
      "eccentricity": 0.0001338,
      "inclination_deg": 42.9993,
      "raan_deg": 301.3256,
      "arg_perigee_deg": 267.9932,
      "mean_anomaly_deg": 92.0766,
      "mean_motion_rev_day": 15.27619874
    },
    {
      "epoch": "2026-04-02T22:24:45.001152Z",
      "apogee_km": 483.88129628498336,
      "perigee_km": 481.9737831216544,
      "latitude_deg": 4.76146449019375e-05,
      "longitude_deg": 133.49334140290182,
      "height_km": 482.709616464973,
      "semi_major_axis_km": 6861.064539703319,
      "eccentricity": 0.00013901,
      "inclination_deg": 42.9991,
      "raan_deg": 300.9562,
      "arg_perigee_deg": 269.67,
      "mean_anomaly_deg": 90.3993,
      "mean_motion_rev_day": 15.27620596
    },
    {
      "epoch": "2026-04-03T14:06:19.904832Z",
      "apogee_km": 483.305864344391,
      "perigee_km": 482.7775535838009,
      "latitude_deg": 1.3227713046067982e-05,
      "longitude_deg": -106.23761705922739,
      "height_km": 482.91806632150553,
      "semi_major_axis_km": 6861.178708964096,
      "eccentricity": 3.85e-05,
      "inclination_deg": 42.9979,
      "raan_deg": 297.2652,
      "arg_perigee_deg": 247.557,
      "mean_anomaly_deg": 112.5241,
      "mean_motion_rev_day": 15.27582467
    },
    {
      "epoch": "2026-04-04T05:47:53.923776Z",
      "apogee_km": 484.0630873527725,
      "perigee_km": 482.0751214960774,
      "latitude_deg": 1.907616399092653e-05,
      "longitude_deg": 14.032363615475267,
      "height_km": 483.0893438508227,
      "semi_major_axis_km": 6861.206104424425,
      "eccentricity": 0.00014487,
      "inclination_deg": 43.0026,
      "raan_deg": 293.5714,
      "arg_perigee_deg": 255.8328,
      "mean_anomaly_deg": 104.2363,
      "mean_motion_rev_day": 15.27573318
    },
    {
      "epoch": "2026-04-05T13:11:02.343552Z",
      "apogee_km": 484.06681170396314,
      "perigee_km": 482.0308234244594,
      "latitude_deg": 2.568676048396711e-06,
      "longitude_deg": -105.4270018462632,
      "height_km": 483.1742765497421,
      "semi_major_axis_km": 6861.185817564211,
      "eccentricity": 0.00014837,
      "inclination_deg": 43.0029,
      "raan_deg": 286.1861,
      "arg_perigee_deg": 249.9812,
      "mean_anomaly_deg": 110.088,
      "mean_motion_rev_day": 15.27580093
    },
    {
      "epoch": "2026-04-05T19:27:39.816864Z",
      "apogee_km": 484.23446906117533,
      "perigee_km": 481.8493860423796,
      "latitude_deg": -7.383942417770849e-06,
      "longitude_deg": 158.68195792469302,
      "height_km": 483.01110324453543,
      "semi_major_axis_km": 6861.178927551778,
      "eccentricity": 0.00017381,
      "inclination_deg": 43.0032,
      "raan_deg": 284.709,
      "arg_perigee_deg": 260.7404,
      "mean_anomaly_deg": 99.3251,
      "mean_motion_rev_day": 15.27582394
    },
    {
      "epoch": "2026-04-07T12:15:44.072064Z",
      "apogee_km": 484.49694079322944,
      "perigee_km": 481.64953854376745,
      "latitude_deg": -1.634838098809904e-05,
      "longitude_deg": -104.61393095651165,
      "height_km": 482.7672575751779,
      "semi_major_axis_km": 6861.210239668499,
      "eccentricity": 0.0002075,
      "inclination_deg": 43.0019,
      "raan_deg": 275.1065,
      "arg_perigee_deg": 273.3597,
      "mean_anomaly_deg": 86.7017,
      "mean_motion_rev_day": 15.27571937
    },
    {
      "epoch": "2026-04-07T20:06:31.237920Z",
      "apogee_km": 484.3684409356292,
      "perigee_km": 481.7803919893404,
      "latitude_deg": 5.436895499659169e-05,
      "longitude_deg": 135.51957746423008,
      "height_km": 482.74466400698947,
      "semi_major_axis_km": 6861.2114164624845,
      "eccentricity": 0.0001886,
      "inclination_deg": 43.001,
      "raan_deg": 273.2587,
      "arg_perigee_deg": 274.7412,
      "mean_anomaly_deg": 85.3225,
      "mean_motion_rev_day": 15.27571544
    },
    {
      "epoch": "2026-04-08T11:48:05.806368Z",
      "apogee_km": 484.0927828945696,
      "perigee_km": 482.09808540131326,
      "latitude_deg": -2.7115100916435897e-06,
      "longitude_deg": -104.21130656809291,
      "height_km": 482.86731543232014,
      "semi_major_axis_km": 6861.232434147941,
      "eccentricity": 0.00014536,
      "inclination_deg": 43.0012,
      "raan_deg": 269.5664,
      "arg_perigee_deg": 270.2873,
      "mean_anomaly_deg": 89.7812,
      "mean_motion_rev_day": 15.27564525
    },
    {
      "epoch": "2026-04-09T20:45:20.937888Z",
      "apogee_km": 484.1072577765108,
      "perigee_km": 481.8609267309057,
      "latitude_deg": -2.4302434983587224e-05,
      "longitude_deg": 112.37003728769747,
      "height_km": 482.549850396495,
      "semi_major_axis_km": 6861.1210922537075,
      "eccentricity": 0.0001637,
      "inclination_deg": 43.0017,
      "raan_deg": 261.8142,
      "arg_perigee_deg": 280.8453,
      "mean_anomaly_deg": 79.2214,
      "mean_motion_rev_day": 15.27601709
    },
    {
      "epoch": "2026-04-10T12:26:54.534336Z",
      "apogee_km": 484.0447463982937,
      "perigee_km": 482.01658523627884,
      "latitude_deg": -3.172837948254353e-05,
      "longitude_deg": -127.358232342386,
      "height_km": 482.9701109939128,
      "semi_major_axis_km": 6861.167665817286,
      "eccentricity": 0.0001478,
      "inclination_deg": 43.0004,
      "raan_deg": 258.1204,
      "arg_perigee_deg": 260.7692,
      "mean_anomaly_deg": 99.2992,
      "mean_motion_rev_day": 15.27586155
    }
  ]
}